EUTELSAT 7A             
1 28187U 04008A   25224.49558722  .00000104  00000+0  00000+0 0  9998
2 28187   5.0402  75.7075 0001212 108.0878 176.5936  1.00271466 78254
EUTELSAT 174A           
1 28924U 05052A   25224.50282515  .00000009  00000+0  00000+0 0  9997
2 28924   3.4310  80.3912 0006131  62.4587 173.3202  1.00271161 49239
EUTELSAT HOTBIRD 13B    
1 29270U 06032A   25224.54624536  .00000157  00000+0  00000+0 0  9992
2 29270   0.8585  85.7464 0003989  54.6313  50.5775  1.00271469 44213
EUTELSAT HOTBIRD 13C    
1 33459U 08065A   25224.39447450 -.00000100  00000+0  00000+0 0  9994
2 33459   2.1506  82.9077 0003624  75.3070 292.3753  1.00271160 44254
EUTELSAT 36B            
1 36101U 09065A   25224.54968976  .00000113  00000+0  00000+0 0  9993
2 36101   0.0521  10.5056 0005742 133.7496  65.3655  1.00273406 57611
EUTELSAT KA-SAT 9A      
1 37258U 10069A   25224.54139201  .00000063  00000+0  00000+0 0  9998
2 37258   0.0581 306.9535 0004360 179.9463  38.2226  1.00270891 40919
EUTELSAT 7 WEST A       
1 37816U 11051A   25224.39551450 -.00000059  00000+0  00000+0 0  9993
2 37816   0.0644 344.3064 0005275 172.0364 299.8217  1.00270771 50791
EUTELSAT 16A            
1 37836U 11057A   25224.54286535  .00000105  00000+0  00000+0 0  9998
2 37836   0.0647 357.2211 0005449 142.6063  32.8122  1.00271167  4233
